{"type": "FeatureCollection", "features": [ {"type": "Feature", "properties": {"norad_id": 60989, "name": "SENTINEL-2C", "group": "resource", "lat": -75.42503196306647, "lon": 104.63344577075009, "alt_km": 797.135234155955, "timestamp": "2025-12-22T20:43:45.500747+00:00", "meta": {"OBJECT_NAME": "SENTINEL-2C", "OBJECT_ID": "2024-157A", "EPOCH": "2025-12-22T02:37:57.768096", "MEAN_MOTION": 14.30821207, "ECCENTRICITY": 0.00011935, "INCLINATION": 98.5671, "RA_OF_ASC_NODE": 68.4569, "ARG_OF_PERICENTER": 95.079, "MEAN_ANOMALY": 265.0529, "EPHEMERIS_TYPE": 0, "CLASSIFICATION_TYPE": "U", "NORAD_CAT_ID": 60989, "ELEMENT_SET_NO": 999, "REV_AT_EPOCH": 6766, "BSTAR": 7.3686296e-05, "MEAN_MOTION_DOT": 1.5e-06, "MEAN_MOTION_DDOT": 0}, "tle": {"line1": "1 60989U 24157A   25356.10969639  .00000150  00000+0  73686-4 0  9994", "line2": "2 60989  98.5671  68.4569 0001193  95.0790 265.0529 14.30821207 67664"}}, "geometry": {"type": "Point", "coordinates": [104.63344577075009, -75.42503196306647]}}, {"type": "Feature", "properties": {"norad_id": 61735, "name": "IONOSFERA-M 1", "group": "resource", "lat": -71.3199644853503, "lon": 19.569547459407204, "alt_km": 823.5832571925939, "timestamp": "2025-12-22T20:43:45.500757+00:00", "meta": {"OBJECT_NAME": "IONOSFERA-M 1", "OBJECT_ID": "2024-199A", "EPOCH": "2025-12-22T14:28:41.543040", "MEAN_MOTION": 14.22716122, "ECCENTRICITY": 4.76e-05, "INCLINATION": 98.7397, "RA_OF_ASC_NODE": 226.3755, "ARG_OF_PERICENTER": 7.6602, "MEAN_ANOMALY": 352.4584, "EPHEMERIS_TYPE": 0, "CLASSIFICATION_TYPE": "U", "NORAD_CAT_ID": 61735, "ELEMENT_SET_NO": 999, "REV_AT_EPOCH": 10259, "BSTAR": 4.317171e-05, "MEAN_MOTION_DOT": 5.2e-07, "MEAN_MOTION_DDOT": 0}, "tle": {"line1": "1 61735U 24199A   25356.60325860  .00000052  00000+0  43172-4 0  9995", "line2": "2 61735  98.7397 226.3755 0000476   7.6602 352.4584 14.22716122102591"}}, "geometry": {"type": "Point", "coordinates": [19.569547459407204, -71.3199644853503]}}, {"type": "Feature", "properties": {"norad_id": 61736, "name": "IONOSFERA-M 2", "group": "resource", "lat": 73.62890476620184, "lon": -165.03020592451824, "alt_km": 807.8706651859948, "timestamp": "2025-12-22T20:43:45.500767+00:00", "meta": {"OBJECT_NAME": "IONOSFERA-M 2", "OBJECT_ID": "2024-199B", "EPOCH": "2025-12-22T15:18:33.783264", "MEAN_MOTION": 14.22718309, "ECCENTRICITY": 0.00018314, "INCLINATION": 98.7396, "RA_OF_ASC_NODE": 226.3222, "ARG_OF_PERICENTER": 97.8626, "MEAN_ANOMALY": 262.276, "EPHEMERIS_TYPE": 0, "CLASSIFICATION_TYPE": "U", "NORAD_CAT_ID": 61736, "ELEMENT_SET_NO": 999, "REV_AT_EPOCH": 10572, "BSTAR": 4.3957363e-05, "MEAN_MOTION_DOT": 5.4e-07, "MEAN_MOTION_DDOT": 0}, "tle": {"line1": "1 61736U 24199B   25356.63789101  .00000054  00000+0  43957-4 0  9994", "line2": "2 61736  98.7396 226.3222 0001831  97.8626 262.2760 14.22718309105724"}}, "geometry": {"type": "Point", "coordinates": [-165.03020592451824, 73.62890476620184]}}, {"type": "Feature", "properties": {"norad_id": 63772, "name": "BIOMASS", "group": "resource", "lat": 77.84412538264219, "lon": 42.92323646025566, "alt_km": 660.9068656188556, "timestamp": "2025-12-22T20:43:45.500777+00:00", "meta": {"OBJECT_NAME": "BIOMASS", "OBJECT_ID": "2025-090A", "EPOCH": "2025-12-22T12:05:51.393984", "MEAN_MOTION": 14.67537759, "ECCENTRICITY": 0.00010953, "INCLINATION": 98.0697, "RA_OF_ASC_NODE": 181.3714, "ARG_OF_PERICENTER": 82.1383, "MEAN_ANOMALY": 277.9946, "EPHEMERIS_TYPE": 0, "CLASSIFICATION_TYPE": "U", "NORAD_CAT_ID": 63772, "ELEMENT_SET_NO": 999, "REV_AT_EPOCH": 3477, "BSTAR": 0.00022198106, "MEAN_MOTION_DOT": 1.211e-05, "MEAN_MOTION_DDOT": 0}, "tle": {"line1": "1 63772U 25090A   25356.50406706  .00001211  00000+0  22198-3 0  9999", "line2": "2 63772  98.0697 181.3714 0001095  82.1383 277.9946 14.67537759 34770"}}, "geometry": {"type": "Point", "coordinates": [42.92323646025566, 77.84412538264219]}}, {"type": "Feature", "properties": {"norad_id": 64694, "name": "GOSAT-GW (IBUKI GW)", "group": "resource", "lat": -49.86591300807842, "lon": -58.15053861311204, "alt_km": 676.4543908523056, "timestamp": "2025-12-22T20:43:45.500787+00:00", "meta": {"OBJECT_NAME": "GOSAT-GW (IBUKI GW)", "OBJECT_ID": "2025-141A", "EPOCH": "2025-12-22T14:24:49.949568", "MEAN_MOTION": 14.6756369, "ECCENTRICITY": 0.00014309, "INCLINATION": 98.0437, "RA_OF_ASC_NODE": 291.9352, "ARG_OF_PERICENTER": 84.4297, "MEAN_ANOMALY": 275.7071, "EPHEMERIS_TYPE": 0, "CLASSIFICATION_TYPE": "U", "NORAD_CAT_ID": 64694, "ELEMENT_SET_NO": 999, "REV_AT_EPOCH": 2594, "BSTAR": 0.00016405229, "MEAN_MOTION_DOT": 8.83e-06, "MEAN_MOTION_DDOT": 0}, "tle": {"line1": "1 64694U 25141A   25356.60057812  .00000883  00000+0  16405-3 0  9999", "line2": "2 64694  98.0437 291.9352 0001430  84.4297 275.7071 14.67563690 25941"}}, "geometry": {"type": "Point", "coordinates": [-58.15053861311204, -49.86591300807842]}}, {"type": "Feature", "properties": {"norad_id": 64876, "name": "IONOSFERA-M 3", "group": "resource", "lat": 71.74501372508246, "lon": -68.79461452831178, "alt_km": 812.3371733877148, "timestamp": "2025-12-22T20:43:45.500797+00:00", "meta": {"OBJECT_NAME": "IONOSFERA-M 3", "OBJECT_ID": "2025-155A", "EPOCH": "2025-12-22T15:18:54.872640", "MEAN_MOTION": 14.21443313, "ECCENTRICITY": 0.00019381, "INCLINATION": 98.5797, "RA_OF_ASC_NODE": 318.2247, "ARG_OF_PERICENTER": 43.7908, "MEAN_ANOMALY": 316.3423, "EPHEMERIS_TYPE": 0, "CLASSIFICATION_TYPE": "U", "NORAD_CAT_ID": 64876, "ELEMENT_SET_NO": 999, "REV_AT_EPOCH": 2132, "BSTAR": 5.2413667e-05, "MEAN_MOTION_DOT": 7.2e-07, "MEAN_MOTION_DDOT": 0}, "tle": {"line1": "1 64876U 25155A   25356.63813510  .00000072  00000+0  52414-4 0  9995", "line2": "2 64876  98.5797 318.2247 0001938  43.7908 316.3423 14.21443313 21323"}}, "geometry": {"type": "Point", "coordinates": [-68.79461452831178, 71.74501372508246]}}, {"type": "Feature", "properties": {"norad_id": 64877, "name": "IONOSFERA-M 4", "group": "resource", "lat": -72.39664750712608, "lon": 109.95122195608609, "alt_km": 828.6614662543288, "timestamp": "2025-12-22T20:43:45.500807+00:00", "meta": {"OBJECT_NAME": "IONOSFERA-M 4", "OBJECT_ID": "2025-155B", "EPOCH": "2025-12-22T14:28:02.166240", "MEAN_MOTION": 14.21444452, "ECCENTRICITY": 0.00013568, "INCLINATION": 98.5795, "RA_OF_ASC_NODE": 318.1097, "ARG_OF_PERICENTER": 54.0306, "MEAN_ANOMALY": 306.0998, "EPHEMERIS_TYPE": 0, "CLASSIFICATION_TYPE": "U", "NORAD_CAT_ID": 64877, "ELEMENT_SET_NO": 999, "REV_AT_EPOCH": 2131, "BSTAR": 4.8571163e-05, "MEAN_MOTION_DOT": 6.3e-07, "MEAN_MOTION_DDOT": 0}, "tle": {"line1": "1 64877U 25155B   25356.60280285  .00000063  00000+0  48571-4 0  9999", "line2": "2 64877  98.5795 318.1097 0001356  54.0306 306.0998 14.21444452 21312"}}, "geometry": {"type": "Point", "coordinates": [109.95122195608609, -72.39664750712608]}}, {"type": "Feature", "properties": {"norad_id": 64899, "name": "MICROCARB", "group": "resource", "lat": 81.92895031035924, "lon": -25.242423684478833, "alt_km": 635.6380998849863, "timestamp": "2025-12-22T20:43:45.500817+00:00", "meta": {"OBJECT_NAME": "MICROCARB", "OBJECT_ID": "2025-156A", "EPOCH": "2025-12-22T04:00:16.111296", "MEAN_MOTION": 14.72071696, "ECCENTRICITY": 0.00175613, "INCLINATION": 98.0014, "RA_OF_ASC_NODE": 71.3608, "ARG_OF_PERICENTER": 116.4521, "MEAN_ANOMALY": 243.8491, "EPHEMERIS_TYPE": 0, "CLASSIFICATION_TYPE": "U", "NORAD_CAT_ID": 64899, "ELEMENT_SET_NO": 999, "REV_AT_EPOCH": 2192, "BSTAR": 0.00011167733, "MEAN_MOTION_DOT": 6.54e-06, "MEAN_MOTION_DDOT": 0}, "tle": {"line1": "1 64899U 25156A   25356.16685314  .00000654  00000+0  11168-3 0  9994", "line2": "2 64899  98.0014  71.3608 0017561 116.4521 243.8491 14.72071696 21923"}}, "geometry": {"type": "Point", "coordinates": [-25.242423684478833, 81.92895031035924]}}, {"type": "Feature", "properties": {"norad_id": 64900, "name": "CO3D 3", "group": "resource", "lat": 80.44323841615547, "lon": 22.23040849139262, "alt_km": 496.8938088200648, "timestamp": "2025-12-22T20:43:45.500827+00:00", "meta": {"OBJECT_NAME": "CO3D 3", "OBJECT_ID": "2025-156B", "EPOCH": "2025-12-22T14:02:32.609760", "MEAN_MOTION": 15.20209843, "ECCENTRICITY": 0.00013345, "INCLINATION": 97.4341, "RA_OF_ASC_NODE": 72.8113, "ARG_OF_PERICENTER": 76.6298, "MEAN_ANOMALY": 283.5086, "EPHEMERIS_TYPE": 0, "CLASSIFICATION_TYPE": "U", "NORAD_CAT_ID": 64900, "ELEMENT_SET_NO": 999, "REV_AT_EPOCH": 2270, "BSTAR": 0.00027936979, "MEAN_MOTION_DOT": 5.986e-05, "MEAN_MOTION_DDOT": 0}, "tle": {"line1": "1 64900U 25156B   25356.58509965  .00005986  00000+0  27937-3 0  9994", "line2": "2 64900  97.4341  72.8113 0001334  76.6298 283.5086 15.20209843 22707"}}, "geometry": {"type": "Point", "coordinates": [22.23040849139262, 80.44323841615547]}}, {"type": "Feature", "properties": {"norad_id": 64901, "name": "CO3D 4", "group": "resource", "lat": 79.88529869034758, "lon": 26.03683406276375, "alt_km": 497.64915626650236, "timestamp": "2025-12-22T20:43:45.500837+00:00", "meta": {"OBJECT_NAME": "CO3D 4", "OBJECT_ID": "2025-156C", "EPOCH": "2025-12-22T14:02:45.782304", "MEAN_MOTION": 15.20216995, "ECCENTRICITY": 0.00013522, "INCLINATION": 97.434, "RA_OF_ASC_NODE": 72.8115, "ARG_OF_PERICENTER": 164.5243, "MEAN_ANOMALY": 195.6034, "EPHEMERIS_TYPE": 0, "CLASSIFICATION_TYPE": "U", "NORAD_CAT_ID": 64901, "ELEMENT_SET_NO": 999, "REV_AT_EPOCH": 2270, "BSTAR": 0.00028418606, "MEAN_MOTION_DOT": 6.092e-05, "MEAN_MOTION_DDOT": 0}, "tle": {"line1": "1 64901U 25156C   25356.58525211  .00006092  00000+0  28419-3 0  9992", "line2": "2 64901  97.4340  72.8115 0001352 164.5243 195.6034 15.20216995 22708"}}, "geometry": {"type": "Point", "coordinates": [26.03683406276375, 79.88529869034758]}}]}